{
    "links": {
        "self": "http://www.neowsapp.com/rest/v1/neo/3747350?api_key=iIulBulltgU6a56xZRHN4H3l9WmuAYTsLGpBGhQ2"
    },
    "id": "3747350",
    "neo_reference_id": "3747350",
    "name": "(2016 EA158)",
    "designation": "2016 EA158",
    "nasa_jpl_url": "http://ssd.jpl.nasa.gov/sbdb.cgi?sstr=3747350",
    "absolute_magnitude_h": 21.1,
    "estimated_diameter": {
        "kilometers": {
            "estimated_diameter_min": 0.160160338,
            "estimated_diameter_max": 0.358129403
        },
        "meters": {
            "estimated_diameter_min": 160.1603379786,
            "estimated_diameter_max": 358.1294030194
        },
        "miles": {
            "estimated_diameter_min": 0.0995189894,
            "estimated_diameter_max": 0.2225312253
        },
        "feet": {
            "estimated_diameter_min": 525.4604432536,
            "estimated_diameter_max": 1174.9652706022
        }
    },
    "is_potentially_hazardous_asteroid": false,
    "close_approach_data": [
        {
            "close_approach_date": "2011-05-05",
            "close_approach_date_full": "2011-May-05 00:41",
            "epoch_date_close_approach": 1304556060000,
            "relative_velocity": {
                "kilometers_per_second": "14.5541558922",
                "kilometers_per_hour": "52394.9612119801",
                "miles_per_hour": "32556.1913152995"
            },
            "miss_distance": {
                "astronomical": "0.4237394948",
                "lunar": "164.8346634772",
                "kilometers": "63390525.856956076",
                "miles": "39389046.2731668088"
            },
            "orbiting_body": "Earth"
        },
        {
            "close_approach_date": "2016-04-09",
            "close_approach_date_full": "2016-Apr-09 04:07",
            "epoch_date_close_approach": 1460174820000,
            "relative_velocity": {
                "kilometers_per_second": "24.0474778132",
                "kilometers_per_hour": "86570.9201276204",
                "miles_per_hour": "53791.8031204095"
            },
            "miss_distance": {
                "astronomical": "0.2124582228",
                "lunar": "82.6462486692",
                "kilometers": "31783297.594865436",
                "miles": "19749225.3417015768"
            },
            "orbiting_body": "Earth"
        },
        {
            "close_approach_date": "2021-03-25",
            "close_approach_date_full": "2021-Mar-25 18:52",
            "epoch_date_close_approach": 1616698320000,
            "relative_velocity": {
                "kilometers_per_second": "33.5666112662",
                "kilometers_per_hour": "120839.8005582469",
                "miles_per_hour": "75085.1527413174"
            },
            "miss_distance": {
                "astronomical": "0.3450742331",
                "lunar": "134.2338766759",
                "kilometers": "51622370.263643497",
                "miles": "32076653.4676423786"
            },
            "orbiting_body": "Earth"
        }
    ],
    "orbital_data": {
        "orbit_id": "12",
        "orbit_determination_date": "2017-04-06 08:27:26",
        "first_observation_date": "2016-03-12",
        "last_observation_date": "2016-04-07",
        "data_arc_in_days": 26,
        "observations_used": 54,
        "orbit_uncertainty": "7",
        "minimum_orbit_intersection": ".208441",
        "jupiter_tisserand_invariant": "3.598",
        "epoch_osculation": "2459000.5",
        "eccentricity": ".75171024189626",
        "semi_major_axis": "1.829177165249705",
        "inclination": "15.53146307519061",
        "ascending_node_longitude": "148.8393593626005",
        "orbital_period": "903.6121953735195",
        "perihelion_distance": ".454165955888734",
        "perihelion_argument": "156.7651179404602",
        "aphelion_distance": "3.204188374610675",
        "perihelion_time": "2459343.321025290150",
        "mean_anomaly": "223.419761556628",
        "mean_motion": ".3984009975110943",
        "equinox": "J2000",
        "orbit_class": {
            "orbit_class_type": "APO",
            "orbit_class_description": "Near-Earth asteroid orbits which cross the Earth’s orbit similar to that of 1862 Apollo",
            "orbit_class_range": "a (semi-major axis) > 1.0 AU; q (perihelion) < 1.017 AU"
        }
    },
    "is_sentry_object": false
}